start=new Date('2022-12-13T00:00:00.000Z').valueOf();
sats=[{"OBJECT_ID":"2021-082J","EPHEMERIS_TYPE":"0","RCS_SIZE":"LARGE","SITE":"AFWTR","FILE":"3695286","NORAD_CAT_ID":"49138","OBJECT_NAME":"STARLINK-3058","LAUNCH_DATE":"2021-09-14","MEAN_ELEMENT_THEORY":"SGP4","DECAY_DATE":null,"TLE_LINE1":"1 49138U 21082J   22346.85900763 -.00005335  00000-0 -43974-3 0  9991","OBJECT_TYPE":"PAYLOAD","EPOCH":"2022-12-12T20:36:58.259232","APOAPSIS":"573.821","GP_ID":"220208097","CLASSIFICATION_TYPE":"U","TIME_SYSTEM":"UTC","MEAN_MOTION_DDOT":"0.0000000000000","BSTAR":"-0.00043974000000","REF_FRAME":"TEME","TLE_LINE2":"2 49138  70.0029  36.8057 0002504 242.8794 117.2110 14.98322494 68802","CENTER_NAME":"EARTH","ELEMENT_SET_NO":"999","MEAN_MOTION":"14.98322494","PERIAPSIS":"570.341","INCLINATION":"70.0029","ARG_OF_PERICENTER":"242.8794","MEAN_ANOMALY":"117.2110","PERIOD":"96.107","MEAN_MOTION_DOT":"-0.00005335","COUNTRY_CODE":"US","SEMIMAJOR_AXIS":"6950.216","REV_AT_EPOCH":"6880","ECCENTRICITY":"0.00025040","RA_OF_ASC_NODE":"36.8057"},{"MEAN_MOTION_DOT":"0.00004917","MEAN_ANOMALY":"84.4693","PERIOD":"96.106","COUNTRY_CODE":"US","REV_AT_EPOCH":"6974","ECCENTRICITY":"0.00031670","SEMIMAJOR_AXIS":"6950.150","RA_OF_ASC_NODE":"357.5489","TIME_SYSTEM":"UTC","MEAN_MOTION_DDOT":"0.0000000000000","BSTAR":"0.00041940000000","REF_FRAME":"TEME","ELEMENT_SET_NO":"999","TLE_LINE2":"2 49139  70.0029 357.5489 0003167 275.6105  84.4693 14.98343863 69749","CENTER_NAME":"EARTH","PERIAPSIS":"569.814","INCLINATION":"70.0029","ARG_OF_PERICENTER":"275.6105","MEAN_MOTION":"14.98343863","DECAY_DATE":null,"MEAN_ELEMENT_THEORY":"SGP4","TLE_LINE1":"1 49139U 21082K   22346.56123480  .00004917  00000-0  41940-3 0  9997","APOAPSIS":"574.216","OBJECT_TYPE":"PAYLOAD","EPOCH":"2022-12-12T13:28:10.686720","GP_ID":"220185430","CLASSIFICATION_TYPE":"U","OBJECT_ID":"2021-082K","RCS_SIZE":"LARGE","SITE":"AFWTR","EPHEMERIS_TYPE":"0","LAUNCH_DATE":"2021-09-14","OBJECT_NAME":"STARLINK-3057","FILE":"3694743","NORAD_CAT_ID":"49139"},{"ELEMENT_SET_NO":"999","CENTER_NAME":"EARTH","TLE_LINE2":"2 49140  70.0045 357.7382 0002644 281.1556  78.9306 14.98334409 69738","PERIAPSIS":"570.207","INCLINATION":"70.0045","ARG_OF_PERICENTER":"281.1556","MEAN_MOTION":"14.98334409","MEAN_MOTION_DDOT":"0.0000000000000","TIME_SYSTEM":"UTC","REF_FRAME":"TEME","BSTAR":"0.00010399000000","ECCENTRICITY":"0.00026440","REV_AT_EPOCH":"6973","SEMIMAJOR_AXIS":"6950.179","RA_OF_ASC_NODE":"357.7382","MEAN_MOTION_DOT":"0.00001148","PERIOD":"96.107","MEAN_ANOMALY":"78.9306","COUNTRY_CODE":"US","OBJECT_NAME":"STARLINK-3118","LAUNCH_DATE":"2021-09-14","NORAD_CAT_ID":"49140","FILE":"3694071","OBJECT_ID":"2021-082L","SITE":"AFWTR","RCS_SIZE":"LARGE","EPHEMERIS_TYPE":"0","APOAPSIS":"573.882","EPOCH":"2022-12-12T11:38:18.749472","OBJECT_TYPE":"PAYLOAD","CLASSIFICATION_TYPE":"U","GP_ID":"220168251","DECAY_DATE":null,"MEAN_ELEMENT_THEORY":"SGP4","TLE_LINE1":"1 49140U 21082L   22346.48493923  .00001148  00000-0  10399-3 0  9999"},{"CENTER_NAME":"EARTH","TLE_LINE2":"2 49141  70.0030  36.7991 0003050 258.3551 101.7266 14.98332582 70008","ELEMENT_SET_NO":"999","MEAN_MOTION":"14.98332582","ARG_OF_PERICENTER":"258.3551","PERIAPSIS":"569.930","INCLINATION":"70.0030","MEAN_MOTION_DDOT":"0.0000000000000","TIME_SYSTEM":"UTC","REF_FRAME":"TEME","BSTAR":"-0.00006595500000","SEMIMAJOR_AXIS":"6950.185","ECCENTRICITY":"0.00030500","REV_AT_EPOCH":"7000","RA_OF_ASC_NODE":"36.7991","PERIOD":"96.107","MEAN_ANOMALY":"101.7266","MEAN_MOTION_DOT":"-0.00000880","COUNTRY_CODE":"US","FILE":"3695286","NORAD_CAT_ID":"49141","OBJECT_NAME":"STARLINK-3093","LAUNCH_DATE":"2021-09-14","OBJECT_ID":"2021-082M","EPHEMERIS_TYPE":"0","SITE":"AFWTR","RCS_SIZE":"LARGE","EPOCH":"2022-12-12T20:30:06.505344","OBJECT_TYPE":"PAYLOAD","APOAPSIS":"574.170","CLASSIFICATION_TYPE":"U","GP_ID":"220208348","MEAN_ELEMENT_THEORY":"SGP4","DECAY_DATE":null,"TLE_LINE1":"1 49141U 21082M   22346.85424196 -.00000880  00000-0 -65955-4 0  9990"},{"ECCENTRICITY":"0.00032200","REV_AT_EPOCH":"6974","SEMIMAJOR_AXIS":"6950.148","RA_OF_ASC_NODE":"357.5798","MEAN_MOTION_DOT":"0.00008661","PERIOD":"96.106","MEAN_ANOMALY":"80.0128","COUNTRY_CODE":"US","ELEMENT_SET_NO":"999","CENTER_NAME":"EARTH","TLE_LINE2":"2 49142  70.0015 357.5798 0003220 280.0668  80.0128 14.98344458 69741","PERIAPSIS":"569.775","INCLINATION":"70.0015","ARG_OF_PERICENTER":"280.0668","MEAN_MOTION":"14.98344458","MEAN_MOTION_DDOT":"0.0000000000000","TIME_SYSTEM":"UTC","REF_FRAME":"TEME","BSTAR":"0.00073245000000","APOAPSIS":"574.251","OBJECT_TYPE":"PAYLOAD","EPOCH":"2022-12-12T13:07:36.457536","CLASSIFICATION_TYPE":"U","GP_ID":"220208596","DECAY_DATE":null,"MEAN_ELEMENT_THEORY":"SGP4","TLE_LINE1":"1 49142U 21082N   22346.54694974  .00008661  00000-0  73245-3 0  9993","LAUNCH_DATE":"2021-09-14","OBJECT_NAME":"STARLINK-3042","NORAD_CAT_ID":"49142","FILE":"3695286","OBJECT_ID":"2021-082N","SITE":"AFWTR","RCS_SIZE":"LARGE","EPHEMERIS_TYPE":"0"},{"MEAN_ELEMENT_THEORY":"SGP4","DECAY_DATE":null,"TLE_LINE1":"1 49143U 21082P   22346.48838589  .00001377  00000-0  12320-3 0  9993","OBJECT_TYPE":"PAYLOAD","EPOCH":"2022-12-12T11:43:16.540896","APOAPSIS":"574.371","CLASSIFICATION_TYPE":"U","GP_ID":"220168991","OBJECT_ID":"2021-082P","EPHEMERIS_TYPE":"0","SITE":"AFWTR","RCS_SIZE":"LARGE","FILE":"3694071","NORAD_CAT_ID":"49143","OBJECT_NAME":"STARLINK-3109","LAUNCH_DATE":"2021-09-14","PERIOD":"96.107","MEAN_ANOMALY":"114.2284","MEAN_MOTION_DOT":"0.00001377","COUNTRY_CODE":"US","SEMIMAJOR_AXIS":"6950.188","ECCENTRICITY":"0.00033360","REV_AT_EPOCH":"7035","RA_OF_ASC_NODE":"17.7111","MEAN_MOTION_DDOT":"0.0000000000000","TIME_SYSTEM":"UTC","REF_FRAME":"TEME","BSTAR":"0.00012320000000","CENTER_NAME":"EARTH","TLE_LINE2":"2 49143  69.9995  17.7111 0003336 245.8526 114.2284 14.98331620 70359","ELEMENT_SET_NO":"999","MEAN_MOTION":"14.98331620","PERIAPSIS":"569.734","INCLINATION":"69.9995","ARG_OF_PERICENTER":"245.8526"},{"FILE":"3695286","NORAD_CAT_ID":"49144","LAUNCH_DATE":"2021-09-14","OBJECT_NAME":"STARLINK-3100","EPHEMERIS_TYPE":"0","SITE":"AFWTR","RCS_SIZE":"LARGE","OBJECT_ID":"2021-082Q","CLASSIFICATION_TYPE":"U","GP_ID":"220207098","EPOCH":"2022-12-12T20:23:14.912160","OBJECT_TYPE":"PAYLOAD","APOAPSIS":"573.876","TLE_LINE1":"1 49144U 21082Q   22346.84947815  .00004534  00000-0  38770-3 0  9992","MEAN_ELEMENT_THEORY":"SGP4","DECAY_DATE":null,"MEAN_MOTION":"14.98316805","PERIAPSIS":"570.322","INCLINATION":"70.0013","ARG_OF_PERICENTER":"271.4340","CENTER_NAME":"EARTH","TLE_LINE2":"2 49144  70.0013  36.8222 0002557 271.4340  88.6526 14.98316805 68800","ELEMENT_SET_NO":"999","REF_FRAME":"TEME","BSTAR":"0.00038770000000","MEAN_MOTION_DDOT":"0.0000000000000","TIME_SYSTEM":"UTC","RA_OF_ASC_NODE":"36.8222","SEMIMAJOR_AXIS":"6950.234","ECCENTRICITY":"0.00025570","REV_AT_EPOCH":"6880","COUNTRY_CODE":"US","PERIOD":"96.108","MEAN_ANOMALY":"88.6526","MEAN_MOTION_DOT":"0.00004534"},{"APOAPSIS":"574.193","OBJECT_TYPE":"PAYLOAD","EPOCH":"2022-12-12T12:46:58.209888","GP_ID":"220185424","CLASSIFICATION_TYPE":"U","DECAY_DATE":null,"MEAN_ELEMENT_THEORY":"SGP4","TLE_LINE1":"1 49145U 21082R   22346.53261817  .00001399  00000-0  12498-3 0  9995","LAUNCH_DATE":"2021-09-14","OBJECT_NAME":"STARLINK-3119","FILE":"3694743","NORAD_CAT_ID":"49145","OBJECT_ID":"2021-082R","RCS_SIZE":"LARGE","SITE":"AFWTR","EPHEMERIS_TYPE":"0","REV_AT_EPOCH":"6973","ECCENTRICITY":"0.00030770","SEMIMAJOR_AXIS":"6950.189","RA_OF_ASC_NODE":"357.6199","MEAN_MOTION_DOT":"0.00001399","MEAN_ANOMALY":"81.1562","PERIOD":"96.107","COUNTRY_CODE":"US","ELEMENT_SET_NO":"999","TLE_LINE2":"2 49145  70.0010 357.6199 0003077 278.9248  81.1562 14.98331101 69739","CENTER_NAME":"EARTH","ARG_OF_PERICENTER":"278.9248","PERIAPSIS":"569.916","INCLINATION":"70.0010","MEAN_MOTION":"14.98331101","TIME_SYSTEM":"UTC","MEAN_MOTION_DDOT":"0.0000000000000","BSTAR":"0.00012498000000","REF_FRAME":"TEME"},{"RA_OF_ASC_NODE":"17.4086","SEMIMAJOR_AXIS":"6950.180","REV_AT_EPOCH":"7041","ECCENTRICITY":"0.00029770","COUNTRY_CODE":"US","MEAN_ANOMALY":"89.6978","PERIOD":"96.107","MEAN_MOTION_DOT":"0.00002000","MEAN_MOTION":"14.98334008","PERIAPSIS":"569.976","INCLINATION":"70.0019","ARG_OF_PERICENTER":"270.3840","TLE_LINE2":"2 49146  70.0019  17.4086 0002977 270.3840  89.6978 14.98334008 70417","CENTER_NAME":"EARTH","ELEMENT_SET_NO":"999","BSTAR":"0.00017535000000","REF_FRAME":"TEME","TIME_SYSTEM":"UTC","MEAN_MOTION_DDOT":"0.0000000000000","GP_ID":"220208098","CLASSIFICATION_TYPE":"U","EPOCH":"2022-12-12T14:48:40.118400","OBJECT_TYPE":"PAYLOAD","APOAPSIS":"574.115","TLE_LINE1":"1 49146U 21082S   22346.61713100  .00002000  00000-0  17535-3 0  9999","MEAN_ELEMENT_THEORY":"SGP4","DECAY_DATE":null,"FILE":"3695286","NORAD_CAT_ID":"49146","OBJECT_NAME":"STARLINK-3116","LAUNCH_DATE":"2021-09-14","EPHEMERIS_TYPE":"0","RCS_SIZE":"LARGE","SITE":"AFWTR","OBJECT_ID":"2021-082S"},{"MEAN_MOTION":"14.98318575","INCLINATION":"70.0020","PERIAPSIS":"570.119","ARG_OF_PERICENTER":"279.1863","TLE_LINE2":"2 49147  70.0020 357.7702 0002841 279.1863  80.8974 14.98318575 70901","CENTER_NAME":"EARTH","ELEMENT_SET_NO":"999","BSTAR":"-0.00004949400000","REF_FRAME":"TEME","TIME_SYSTEM":"UTC","MEAN_MOTION_DDOT":"0.0000000000000","RA_OF_ASC_NODE":"357.7702","SEMIMAJOR_AXIS":"6950.228","REV_AT_EPOCH":"7090","ECCENTRICITY":"0.00028410","COUNTRY_CODE":"US","MEAN_ANOMALY":"80.8974","PERIOD":"96.108","MEAN_MOTION_DOT":"-0.00000683","FILE":"3694325","NORAD_CAT_ID":"49147","LAUNCH_DATE":"2021-09-14","OBJECT_NAME":"STARLINK-3071","EPHEMERIS_TYPE":"0","RCS_SIZE":"LARGE","SITE":"AFWTR","OBJECT_ID":"2021-082T","GP_ID":"220175022","CLASSIFICATION_TYPE":"U","EPOCH":"2022-12-12T11:24:35.360064","OBJECT_TYPE":"PAYLOAD","APOAPSIS":"574.068","TLE_LINE1":"1 49147U 21082T   22346.47540926 -.00000683  00000-0 -49494-4 0  9995","MEAN_ELEMENT_THEORY":"SGP4","DECAY_DATE":null}];
